KUIPER-00016            
1 63732U 25088J   25206.50001157  .00031846  00000+0  18016-2 0  9997
2 63732  51.8829  39.6758 0010018  51.6700 160.0851 15.12746735  5178
KUIPER-00018            
1 63733U 25088K   25206.75002315 -.00694276  00000+0 -24388-1 0  9994
2 63733  51.8716  34.2112 0006334  61.1733  78.6210 15.31351557 13736
KUIPER-00019            
1 63734U 25088L   25206.70658900 -.00005696  00000+0 -14417-3 0  9993
2 63734  51.8691  34.1959 0004341  75.4916 284.6552 15.37045384 13736
KUIPER-00020            
1 63735U 25088M   25206.75002315 -.00962042  00000+0 -39071-1 0  9990
2 63735  51.8763  34.8641 0007729  55.6891 105.0809 15.26647465 13936
KUIPER-00021            
1 63736U 25088N   25206.75002315 -.00377285  00000+0 -16200-1 0  9999
2 63736  51.8710  35.2901 0005068  74.1669 258.5331 15.23878178 13754
KUIPER-00023            
1 63737U 25088P   25206.75002315 -.00726467  00000+0 -34015-1 0  9994
2 63737  51.8756  35.8918 0008981  66.4476 341.1267 15.21597790 14053
KUIPER-00024            
1 63738U 25088Q   25206.51070750  .00016005  00000+0  42572-3 0  9994
2 63738  51.8726  34.4204 0001588 101.6456 258.4709 15.38377523 14183
KUIPER-00025            
1 63739U 25088R   25206.75002315 -.00404759  00000+0 -14185-1 0  9999
2 63739  51.8697  34.2989 0006463  59.4766  14.2669 15.30637250 14068
