<?xml version="1.0" encoding="UTF-8"?>
<ndm xmlns:xsi="http://www.w3.org/2001/XMLSchema-instance" xsi:noNamespaceSchemaLocation="https://sanaregistry.org/r/ndmxml_unqualified/ndmxml-2.0.0-master-2.0.xsd">
<omm id="CCSDS_OMM_VERS" version="2.0">
<header><CREATION_DATE/><ORIGINATOR/></header><body><segment><metadata><OBJECT_NAME>KUIPER-00016</OBJECT_NAME><OBJECT_ID>2025-088J</OBJECT_ID><CENTER_NAME>EARTH</CENTER_NAME><REF_FRAME>TEME</REF_FRAME><TIME_SYSTEM>UTC</TIME_SYSTEM><MEAN_ELEMENT_THEORY>SGP4</MEAN_ELEMENT_THEORY></metadata><data><meanElements><EPOCH>2025-07-25T12:00:00.999648</EPOCH><MEAN_MOTION>15.12746735</MEAN_MOTION><ECCENTRICITY>.0010018</ECCENTRICITY><INCLINATION>51.8829</INCLINATION><RA_OF_ASC_NODE>39.6758</RA_OF_ASC_NODE><ARG_OF_PERICENTER>51.6700</ARG_OF_PERICENTER><MEAN_ANOMALY>160.0851</MEAN_ANOMALY></meanElements><tleParameters><EPHEMERIS_TYPE>0</EPHEMERIS_TYPE><CLASSIFICATION_TYPE>U</CLASSIFICATION_TYPE><NORAD_CAT_ID>63732</NORAD_CAT_ID><ELEMENT_SET_NO>999</ELEMENT_SET_NO><REV_AT_EPOCH>517</REV_AT_EPOCH><BSTAR>.18016E-2</BSTAR><MEAN_MOTION_DOT>.31846E-3</MEAN_MOTION_DOT><MEAN_MOTION_DDOT>0</MEAN_MOTION_DDOT></tleParameters></data></segment></body></omm>
<omm id="CCSDS_OMM_VERS" version="2.0">
<header><CREATION_DATE/><ORIGINATOR/></header><body><segment><metadata><OBJECT_NAME>KUIPER-00018</OBJECT_NAME><OBJECT_ID>2025-088K</OBJECT_ID><CENTER_NAME>EARTH</CENTER_NAME><REF_FRAME>TEME</REF_FRAME><TIME_SYSTEM>UTC</TIME_SYSTEM><MEAN_ELEMENT_THEORY>SGP4</MEAN_ELEMENT_THEORY></metadata><data><meanElements><EPOCH>2025-07-25T18:00:02.000160</EPOCH><MEAN_MOTION>15.31351557</MEAN_MOTION><ECCENTRICITY>.0006334</ECCENTRICITY><INCLINATION>51.8716</INCLINATION><RA_OF_ASC_NODE>34.2112</RA_OF_ASC_NODE><ARG_OF_PERICENTER>61.1733</ARG_OF_PERICENTER><MEAN_ANOMALY>78.6210</MEAN_ANOMALY></meanElements><tleParameters><EPHEMERIS_TYPE>0</EPHEMERIS_TYPE><CLASSIFICATION_TYPE>U</CLASSIFICATION_TYPE><NORAD_CAT_ID>63733</NORAD_CAT_ID><ELEMENT_SET_NO>999</ELEMENT_SET_NO><REV_AT_EPOCH>1373</REV_AT_EPOCH><BSTAR>-.24388E-1</BSTAR><MEAN_MOTION_DOT>-.694276E-2</MEAN_MOTION_DOT><MEAN_MOTION_DDOT>0</MEAN_MOTION_DDOT></tleParameters></data></segment></body></omm>
<omm id="CCSDS_OMM_VERS" version="2.0">
<header><CREATION_DATE/><ORIGINATOR/></header><body><segment><metadata><OBJECT_NAME>KUIPER-00019</OBJECT_NAME><OBJECT_ID>2025-088L</OBJECT_ID><CENTER_NAME>EARTH</CENTER_NAME><REF_FRAME>TEME</REF_FRAME><TIME_SYSTEM>UTC</TIME_SYSTEM><MEAN_ELEMENT_THEORY>SGP4</MEAN_ELEMENT_THEORY></metadata><data><meanElements><EPOCH>2025-07-25T16:57:29.289600</EPOCH><MEAN_MOTION>15.37045384</MEAN_MOTION><ECCENTRICITY>.0004341</ECCENTRICITY><INCLINATION>51.8691</INCLINATION><RA_OF_ASC_NODE>34.1959</RA_OF_ASC_NODE><ARG_OF_PERICENTER>75.4916</ARG_OF_PERICENTER><MEAN_ANOMALY>284.6552</MEAN_ANOMALY></meanElements><tleParameters><EPHEMERIS_TYPE>0</EPHEMERIS_TYPE><CLASSIFICATION_TYPE>U</CLASSIFICATION_TYPE><NORAD_CAT_ID>63734</NORAD_CAT_ID><ELEMENT_SET_NO>999</ELEMENT_SET_NO><REV_AT_EPOCH>1373</REV_AT_EPOCH><BSTAR>-.14417E-3</BSTAR><MEAN_MOTION_DOT>-.5696E-4</MEAN_MOTION_DOT><MEAN_MOTION_DDOT>0</MEAN_MOTION_DDOT></tleParameters></data></segment></body></omm>
<omm id="CCSDS_OMM_VERS" version="2.0">
<header><CREATION_DATE/><ORIGINATOR/></header><body><segment><metadata><OBJECT_NAME>KUIPER-00020</OBJECT_NAME><OBJECT_ID>2025-088M</OBJECT_ID><CENTER_NAME>EARTH</CENTER_NAME><REF_FRAME>TEME</REF_FRAME><TIME_SYSTEM>UTC</TIME_SYSTEM><MEAN_ELEMENT_THEORY>SGP4</MEAN_ELEMENT_THEORY></metadata><data><meanElements><EPOCH>2025-07-25T18:00:02.000160</EPOCH><MEAN_MOTION>15.26647465</MEAN_MOTION><ECCENTRICITY>.0007729</ECCENTRICITY><INCLINATION>51.8763</INCLINATION><RA_OF_ASC_NODE>34.8641</RA_OF_ASC_NODE><ARG_OF_PERICENTER>55.6891</ARG_OF_PERICENTER><MEAN_ANOMALY>105.0809</MEAN_ANOMALY></meanElements><tleParameters><EPHEMERIS_TYPE>0</EPHEMERIS_TYPE><CLASSIFICATION_TYPE>U</CLASSIFICATION_TYPE><NORAD_CAT_ID>63735</NORAD_CAT_ID><ELEMENT_SET_NO>999</ELEMENT_SET_NO><REV_AT_EPOCH>1393</REV_AT_EPOCH><BSTAR>-.39071E-1</BSTAR><MEAN_MOTION_DOT>-.962042E-2</MEAN_MOTION_DOT><MEAN_MOTION_DDOT>0</MEAN_MOTION_DDOT></tleParameters></data></segment></body></omm>
<omm id="CCSDS_OMM_VERS" version="2.0">
<header><CREATION_DATE/><ORIGINATOR/></header><body><segment><metadata><OBJECT_NAME>KUIPER-00021</OBJECT_NAME><OBJECT_ID>2025-088N</OBJECT_ID><CENTER_NAME>EARTH</CENTER_NAME><REF_FRAME>TEME</REF_FRAME><TIME_SYSTEM>UTC</TIME_SYSTEM><MEAN_ELEMENT_THEORY>SGP4</MEAN_ELEMENT_THEORY></metadata><data><meanElements><EPOCH>2025-07-25T18:00:02.000160</EPOCH><MEAN_MOTION>15.23878178</MEAN_MOTION><ECCENTRICITY>.0005068</ECCENTRICITY><INCLINATION>51.8710</INCLINATION><RA_OF_ASC_NODE>35.2901</RA_OF_ASC_NODE><ARG_OF_PERICENTER>74.1669</ARG_OF_PERICENTER><MEAN_ANOMALY>258.5331</MEAN_ANOMALY></meanElements><tleParameters><EPHEMERIS_TYPE>0</EPHEMERIS_TYPE><CLASSIFICATION_TYPE>U</CLASSIFICATION_TYPE><NORAD_CAT_ID>63736</NORAD_CAT_ID><ELEMENT_SET_NO>999</ELEMENT_SET_NO><REV_AT_EPOCH>1375</REV_AT_EPOCH><BSTAR>-.162E-1</BSTAR><MEAN_MOTION_DOT>-.377285E-2</MEAN_MOTION_DOT><MEAN_MOTION_DDOT>0</MEAN_MOTION_DDOT></tleParameters></data></segment></body></omm>
<omm id="CCSDS_OMM_VERS" version="2.0">
<header><CREATION_DATE/><ORIGINATOR/></header><body><segment><metadata><OBJECT_NAME>KUIPER-00023</OBJECT_NAME><OBJECT_ID>2025-088P</OBJECT_ID><CENTER_NAME>EARTH</CENTER_NAME><REF_FRAME>TEME</REF_FRAME><TIME_SYSTEM>UTC</TIME_SYSTEM><MEAN_ELEMENT_THEORY>SGP4</MEAN_ELEMENT_THEORY></metadata><data><meanElements><EPOCH>2025-07-25T18:00:02.000160</EPOCH><MEAN_MOTION>15.21597790</MEAN_MOTION><ECCENTRICITY>.0008981</ECCENTRICITY><INCLINATION>51.8756</INCLINATION><RA_OF_ASC_NODE>35.8918</RA_OF_ASC_NODE><ARG_OF_PERICENTER>66.4476</ARG_OF_PERICENTER><MEAN_ANOMALY>341.1267</MEAN_ANOMALY></meanElements><tleParameters><EPHEMERIS_TYPE>0</EPHEMERIS_TYPE><CLASSIFICATION_TYPE>U</CLASSIFICATION_TYPE><NORAD_CAT_ID>63737</NORAD_CAT_ID><ELEMENT_SET_NO>999</ELEMENT_SET_NO><REV_AT_EPOCH>1405</REV_AT_EPOCH><BSTAR>-.34015E-1</BSTAR><MEAN_MOTION_DOT>-.726467E-2</MEAN_MOTION_DOT><MEAN_MOTION_DDOT>0</MEAN_MOTION_DDOT></tleParameters></data></segment></body></omm>
<omm id="CCSDS_OMM_VERS" version="2.0">
<header><CREATION_DATE/><ORIGINATOR/></header><body><segment><metadata><OBJECT_NAME>KUIPER-00024</OBJECT_NAME><OBJECT_ID>2025-088Q</OBJECT_ID><CENTER_NAME>EARTH</CENTER_NAME><REF_FRAME>TEME</REF_FRAME><TIME_SYSTEM>UTC</TIME_SYSTEM><MEAN_ELEMENT_THEORY>SGP4</MEAN_ELEMENT_THEORY></metadata><data><meanElements><EPOCH>2025-07-25T12:15:25.128000</EPOCH><MEAN_MOTION>15.38377523</MEAN_MOTION><ECCENTRICITY>.0001588</ECCENTRICITY><INCLINATION>51.8726</INCLINATION><RA_OF_ASC_NODE>34.4204</RA_OF_ASC_NODE><ARG_OF_PERICENTER>101.6456</ARG_OF_PERICENTER><MEAN_ANOMALY>258.4709</MEAN_ANOMALY></meanElements><tleParameters><EPHEMERIS_TYPE>0</EPHEMERIS_TYPE><CLASSIFICATION_TYPE>U</CLASSIFICATION_TYPE><NORAD_CAT_ID>63738</NORAD_CAT_ID><ELEMENT_SET_NO>999</ELEMENT_SET_NO><REV_AT_EPOCH>1418</REV_AT_EPOCH><BSTAR>.42572E-3</BSTAR><MEAN_MOTION_DOT>.16005E-3</MEAN_MOTION_DOT><MEAN_MOTION_DDOT>0</MEAN_MOTION_DDOT></tleParameters></data></segment></body></omm>
<omm id="CCSDS_OMM_VERS" version="2.0">
<header><CREATION_DATE/><ORIGINATOR/></header><body><segment><metadata><OBJECT_NAME>KUIPER-00025</OBJECT_NAME><OBJECT_ID>2025-088R</OBJECT_ID><CENTER_NAME>EARTH</CENTER_NAME><REF_FRAME>TEME</REF_FRAME><TIME_SYSTEM>UTC</TIME_SYSTEM><MEAN_ELEMENT_THEORY>SGP4</MEAN_ELEMENT_THEORY></metadata><data><meanElements><EPOCH>2025-07-25T18:00:02.000160</EPOCH><MEAN_MOTION>15.30637250</MEAN_MOTION><ECCENTRICITY>.0006463</ECCENTRICITY><INCLINATION>51.8697</INCLINATION><RA_OF_ASC_NODE>34.2989</RA_OF_ASC_NODE><ARG_OF_PERICENTER>59.4766</ARG_OF_PERICENTER><MEAN_ANOMALY>14.2669</MEAN_ANOMALY></meanElements><tleParameters><EPHEMERIS_TYPE>0</EPHEMERIS_TYPE><CLASSIFICATION_TYPE>U</CLASSIFICATION_TYPE><NORAD_CAT_ID>63739</NORAD_CAT_ID><ELEMENT_SET_NO>999</ELEMENT_SET_NO><REV_AT_EPOCH>1406</REV_AT_EPOCH><BSTAR>-.14185E-1</BSTAR><MEAN_MOTION_DOT>-.404759E-2</MEAN_MOTION_DOT><MEAN_MOTION_DDOT>0</MEAN_MOTION_DDOT></tleParameters></data></segment></body></omm>

</ndm>
